start=new Date('2022-09-24T00:00:00.000Z').valueOf();
sats=[{"MEAN_MOTION_DDOT":"0.0000000000000","OBJECT_TYPE":"PAYLOAD","TLE_LINE1":"1 45204U 20012AC  22266.78051460  .00001889  00000-0  14569-3 0  9993","ECCENTRICITY":"0.00013310","REV_AT_EPOCH":"14478","ARG_OF_PERICENTER":"71.7857","DECAY_DATE":null,"MEAN_ANOMALY":"288.3277","MEAN_ELEMENT_THEORY":"SGP4","TLE_LINE2":"2 45204  53.0551 296.0406 0001331  71.7857 288.3277 15.06402821144786","MEAN_MOTION":"15.06402821","RA_OF_ASC_NODE":"296.0406","OBJECT_NAME":"STARLINK-1206","PERIAPSIS":"546.283","REF_FRAME":"TEME","GP_ID":"213330680","SEMIMAJOR_AXIS":"6925.340","SITE":"AFETR","RCS_SIZE":"LARGE","INCLINATION":"53.0551","TIME_SYSTEM":"UTC","OBJECT_ID":"2020-012AC","LAUNCH_DATE":"2020-02-17","PERIOD":"95.592","CLASSIFICATION_TYPE":"U","NORAD_CAT_ID":"45204","ELEMENT_SET_NO":"999","MEAN_MOTION_DOT":"0.00001889","EPHEMERIS_TYPE":"0","APOAPSIS":"548.127","COUNTRY_CODE":"US","BSTAR":"0.00014569000000","CENTER_NAME":"EARTH","FILE":"3581681","EPOCH":"2022-09-23T18:43:56.461440"},{"ARG_OF_PERICENTER":"73.2942","DECAY_DATE":null,"MEAN_ANOMALY":"286.8220","TLE_LINE2":"2 45205  53.0544 295.9290 0001579  73.2942 286.8220 15.06400555144798","MEAN_ELEMENT_THEORY":"SGP4","MEAN_MOTION":"15.06400555","MEAN_MOTION_DDOT":"0.0000000000000","ECCENTRICITY":"0.00015790","TLE_LINE1":"1 45205U 20012AD  22266.80262429  .00000091  00000-0  25023-4 0  9998","OBJECT_TYPE":"PAYLOAD","REV_AT_EPOCH":"14479","GP_ID":"213331929","SITE":"AFETR","SEMIMAJOR_AXIS":"6925.347","RCS_SIZE":"LARGE","INCLINATION":"53.0544","TIME_SYSTEM":"UTC","OBJECT_ID":"2020-012AD","RA_OF_ASC_NODE":"295.9290","OBJECT_NAME":"STARLINK-1208","PERIAPSIS":"546.118","REF_FRAME":"TEME","NORAD_CAT_ID":"45205","ELEMENT_SET_NO":"999","MEAN_MOTION_DOT":"0.00000091","LAUNCH_DATE":"2020-02-17","CLASSIFICATION_TYPE":"U","PERIOD":"95.592","CENTER_NAME":"EARTH","FILE":"3581681","EPOCH":"2022-09-23T19:15:46.738656","EPHEMERIS_TYPE":"0","APOAPSIS":"548.305","COUNTRY_CODE":"US","BSTAR":"0.00002502300000"},{"REV_AT_EPOCH":"14402","OBJECT_TYPE":"PAYLOAD","TLE_LINE1":"1 45206U 20012AE  22266.29949495  .00000582  00000-0  57966-4 0  9993","ECCENTRICITY":"0.00014860","MEAN_MOTION_DDOT":"0.0000000000000","MEAN_ELEMENT_THEORY":"SGP4","TLE_LINE2":"2 45206  53.0537 278.1843 0001486  70.3291 289.7858 15.06402161144020","MEAN_MOTION":"15.06402161","MEAN_ANOMALY":"289.7858","DECAY_DATE":null,"ARG_OF_PERICENTER":"70.3291","REF_FRAME":"TEME","OBJECT_NAME":"STARLINK-1209","PERIAPSIS":"546.178","RA_OF_ASC_NODE":"278.1843","INCLINATION":"53.0537","TIME_SYSTEM":"UTC","OBJECT_ID":"2020-012AE","RCS_SIZE":"LARGE","GP_ID":"213299895","SITE":"AFETR","SEMIMAJOR_AXIS":"6925.342","LAUNCH_DATE":"2020-02-17","PERIOD":"95.592","CLASSIFICATION_TYPE":"U","MEAN_MOTION_DOT":"0.00000582","ELEMENT_SET_NO":"999","NORAD_CAT_ID":"45206","COUNTRY_CODE":"US","BSTAR":"0.00005796600000","APOAPSIS":"548.236","EPHEMERIS_TYPE":"0","EPOCH":"2022-09-23T07:11:16.363680","FILE":"3581351","CENTER_NAME":"EARTH"},{"PERIOD":"95.592","CLASSIFICATION_TYPE":"U","LAUNCH_DATE":"2020-02-17","MEAN_MOTION_DOT":"0.00000593","ELEMENT_SET_NO":"999","NORAD_CAT_ID":"45207","BSTAR":"0.00005867300000","COUNTRY_CODE":"US","APOAPSIS":"548.042","EPHEMERIS_TYPE":"0","EPOCH":"2022-09-23T19:47:37.319136","FILE":"3581681","CENTER_NAME":"EARTH","REV_AT_EPOCH":"14477","ECCENTRICITY":"0.00012060","TLE_LINE1":"1 45207U 20012AF  22266.82473749  .00000593  00000-0  58673-4 0  9995","OBJECT_TYPE":"PAYLOAD","MEAN_MOTION_DDOT":"0.0000000000000","MEAN_MOTION":"15.06402051","MEAN_ELEMENT_THEORY":"SGP4","TLE_LINE2":"2 45207  53.0549 295.8359 0001206  66.9338 293.1778 15.06402051144775","MEAN_ANOMALY":"293.1778","DECAY_DATE":null,"ARG_OF_PERICENTER":"66.9338","REF_FRAME":"TEME","PERIAPSIS":"546.372","OBJECT_NAME":"STARLINK-1210","RA_OF_ASC_NODE":"295.8359","OBJECT_ID":"2020-012AF","INCLINATION":"53.0549","TIME_SYSTEM":"UTC","RCS_SIZE":"LARGE","SITE":"AFETR","GP_ID":"213330430","SEMIMAJOR_AXIS":"6925.342"},{"LAUNCH_DATE":"2020-02-17","CLASSIFICATION_TYPE":"U","PERIOD":"95.644","MEAN_MOTION_DOT":"0.00001275","NORAD_CAT_ID":"45208","ELEMENT_SET_NO":"999","COUNTRY_CODE":"US","BSTAR":"0.00010662000000","EPHEMERIS_TYPE":"0","APOAPSIS":"550.718","EPOCH":"2022-09-23T08:55:35.722272","CENTER_NAME":"EARTH","FILE":"3581351","REV_AT_EPOCH":"14459","MEAN_MOTION_DDOT":"0.0000000000000","TLE_LINE1":"1 45208U 20012AG  22266.37194123  .00001275  00000-0  10662-3 0  9995","ECCENTRICITY":"0.00014600","OBJECT_TYPE":"PAYLOAD","DECAY_DATE":null,"MEAN_ANOMALY":"281.8301","TLE_LINE2":"2 45208  52.9994 297.8778 0001460  78.2851 281.8301 15.05586873144593","MEAN_ELEMENT_THEORY":"SGP4","MEAN_MOTION":"15.05586873","ARG_OF_PERICENTER":"78.2851","REF_FRAME":"TEME","RA_OF_ASC_NODE":"297.8778","OBJECT_NAME":"STARLINK-1211","PERIAPSIS":"548.695","RCS_SIZE":"LARGE","INCLINATION":"52.9994","TIME_SYSTEM":"UTC","OBJECT_ID":"2020-012AG","GP_ID":"213298912","SITE":"AFETR","SEMIMAJOR_AXIS":"6927.842"},{"MEAN_MOTION_DOT":"0.00116916","ELEMENT_SET_NO":"999","NORAD_CAT_ID":"45209","PERIOD":"90.913","CLASSIFICATION_TYPE":"U","LAUNCH_DATE":"2020-02-17","EPOCH":"2022-09-23T16:11:34.894752","FILE":"3581681","CENTER_NAME":"EARTH","BSTAR":"0.00050929000000","COUNTRY_CODE":"US","APOAPSIS":"322.990","EPHEMERIS_TYPE":"0","MEAN_MOTION":"15.83926467","MEAN_ELEMENT_THEORY":"SGP4","TLE_LINE2":"2 45209  53.0381  72.6793 0005433  78.2326 281.9306 15.83926467147821","MEAN_ANOMALY":"281.9306","DECAY_DATE":null,"ARG_OF_PERICENTER":"78.2326","REV_AT_EPOCH":"14782","OBJECT_TYPE":"PAYLOAD","TLE_LINE1":"1 45209U 20012AH  22266.67470943  .00116916  00000-0  50929-3 0  9995","ECCENTRICITY":"0.00054330","MEAN_MOTION_DDOT":"0.0000000000000","OBJECT_ID":"2020-012AH","INCLINATION":"53.0381","TIME_SYSTEM":"UTC","RCS_SIZE":"LARGE","GP_ID":"213331431","SEMIMAJOR_AXIS":"6697.486","SITE":"AFETR","REF_FRAME":"TEME","PERIAPSIS":"315.713","OBJECT_NAME":"STARLINK-1218","RA_OF_ASC_NODE":"72.6793"},{"BSTAR":"0.00016733000000","COUNTRY_CODE":"US","EPHEMERIS_TYPE":"0","APOAPSIS":"548.237","EPOCH":"2022-09-23T08:44:09.738240","CENTER_NAME":"EARTH","FILE":"3581351","PERIOD":"95.592","CLASSIFICATION_TYPE":"U","LAUNCH_DATE":"2020-02-17","MEAN_MOTION_DOT":"0.00002212","NORAD_CAT_ID":"45210","ELEMENT_SET_NO":"999","REF_FRAME":"TEME","RA_OF_ASC_NODE":"297.9202","PERIAPSIS":"546.201","OBJECT_NAME":"STARLINK-1219","RCS_SIZE":"LARGE","OBJECT_ID":"2020-012AJ","TIME_SYSTEM":"UTC","INCLINATION":"53.0546","GP_ID":"213300394","SITE":"AFETR","SEMIMAJOR_AXIS":"6925.354","REV_AT_EPOCH":"14459","MEAN_MOTION_DDOT":"0.0000000000000","TLE_LINE1":"1 45210U 20012AJ  22266.36400160  .00002212  00000-0  16733-3 0  9995","ECCENTRICITY":"0.00014700","OBJECT_TYPE":"PAYLOAD","DECAY_DATE":null,"MEAN_ANOMALY":"292.3655","MEAN_MOTION":"15.06398371","MEAN_ELEMENT_THEORY":"SGP4","TLE_LINE2":"2 45210  53.0546 297.9202 0001470  67.7490 292.3655 15.06398371144591","ARG_OF_PERICENTER":"67.7490"},{"CLASSIFICATION_TYPE":"U","PERIOD":"95.592","LAUNCH_DATE":"2020-02-17","ELEMENT_SET_NO":"999","NORAD_CAT_ID":"45212","MEAN_MOTION_DOT":"0.00001197","APOAPSIS":"548.271","EPHEMERIS_TYPE":"0","BSTAR":"0.00009927500000","COUNTRY_CODE":"US","FILE":"3581681","CENTER_NAME":"EARTH","EPOCH":"2022-09-23T19:05:09.693312","OBJECT_TYPE":"PAYLOAD","TLE_LINE1":"1 45212U 20012AL  22266.79525108  .00001197  00000-0  99275-4 0  9998","ECCENTRICITY":"0.00015270","MEAN_MOTION_DDOT":"0.0000000000000","REV_AT_EPOCH":"14472","ARG_OF_PERICENTER":"69.7837","MEAN_MOTION":"15.06399880","TLE_LINE2":"2 45212  53.0543 295.9864 0001527  69.7837 290.3316 15.06399880144725","MEAN_ELEMENT_THEORY":"SGP4","MEAN_ANOMALY":"290.3316","DECAY_DATE":null,"PERIAPSIS":"546.156","OBJECT_NAME":"STARLINK-1231","RA_OF_ASC_NODE":"295.9864","REF_FRAME":"TEME","GP_ID":"213330929","SEMIMAJOR_AXIS":"6925.349","SITE":"AFETR","OBJECT_ID":"2020-012AL","INCLINATION":"53.0543","TIME_SYSTEM":"UTC","RCS_SIZE":"LARGE"},{"SEMIMAJOR_AXIS":"6820.103","GP_ID":"213299412","SITE":"AFETR","OBJECT_ID":"2020-012AM","INCLINATION":"53.0575","TIME_SYSTEM":"UTC","RCS_SIZE":"LARGE","PERIAPSIS":"440.034","OBJECT_NAME":"STARLINK-1232","RA_OF_ASC_NODE":"244.1072","REF_FRAME":"TEME","ARG_OF_PERICENTER":"139.3053","MEAN_MOTION":"15.41403592","MEAN_ELEMENT_THEORY":"SGP4","TLE_LINE2":"2 45213  53.0575 244.1072 0002836 139.3053 220.8164 15.41403592145462","MEAN_ANOMALY":"220.8164","DECAY_DATE":null,"ECCENTRICITY":"0.00028360","TLE_LINE1":"1 45213U 20012AM  22266.23385914  .00011023  00000-0  26900-3 0  9990","OBJECT_TYPE":"PAYLOAD","MEAN_MOTION_DDOT":"0.0000000000000","REV_AT_EPOCH":"14546","FILE":"3581351","CENTER_NAME":"EARTH","EPOCH":"2022-09-23T05:36:45.429696","APOAPSIS":"443.902","EPHEMERIS_TYPE":"0","BSTAR":"0.00026900000000","COUNTRY_CODE":"US","ELEMENT_SET_NO":"999","NORAD_CAT_ID":"45213","MEAN_MOTION_DOT":"0.00011023","PERIOD":"93.421","CLASSIFICATION_TYPE":"U","LAUNCH_DATE":"2020-02-17"},{"ARG_OF_PERICENTER":"59.0514","TLE_LINE2":"2 45214  53.0546 296.9779 0001456  59.0514 301.0618 15.06400684144732","MEAN_ELEMENT_THEORY":"SGP4","MEAN_MOTION":"15.06400684","DECAY_DATE":null,"MEAN_ANOMALY":"301.0618","TLE_LINE1":"1 45214U 20012AN  22266.56946335  .00000726  00000-0  67652-4 0  9995","ECCENTRICITY":"0.00014560","OBJECT_TYPE":"PAYLOAD","MEAN_MOTION_DDOT":"0.0000000000000","REV_AT_EPOCH":"14473","GP_ID":"213331930","SEMIMAJOR_AXIS":"6925.346","SITE":"AFETR","INCLINATION":"53.0546","TIME_SYSTEM":"UTC","OBJECT_ID":"2020-012AN","RCS_SIZE":"LARGE","OBJECT_NAME":"STARLINK-1233","PERIAPSIS":"546.203","RA_OF_ASC_NODE":"296.9779","REF_FRAME":"TEME","ELEMENT_SET_NO":"999","NORAD_CAT_ID":"45214","MEAN_MOTION_DOT":"0.00000726","LAUNCH_DATE":"2020-02-17","CLASSIFICATION_TYPE":"U","PERIOD":"95.592","FILE":"3581681","CENTER_NAME":"EARTH","EPOCH":"2022-09-23T13:40:01.633440","APOAPSIS":"548.220","EPHEMERIS_TYPE":"0","COUNTRY_CODE":"US","BSTAR":"0.00006765200000"}];
